*******************************************************************************
 Revised: Apr 06, 2006              Cupid / (Uranus)                        727

 Irregular Uranian satellite.
*******************************************************************************
 
 
*******************************************************************************
Ephemeris / WWW_USER Sun Nov 12 09:48:47 2017 Pasadena, USA      / Horizons    
*******************************************************************************
Target body name: Cupid (727)                     {source: ura074x}
Center body name: Solar System Barycenter (0)     {source: DE431mx}
Center-site name: BODY CENTER
*******************************************************************************
Start time      : A.D. 2017-Jul-10 00:00:00.0000 TDB
Stop  time      : A.D. 2020-Aug-13 00:00:00.0000 TDB
Step-size       : 1440 minutes
*******************************************************************************
Center geodetic : 0.00000000,0.00000000,0.0000000 {E-lon(deg),Lat(deg),Alt(km)}
Center cylindric: 0.00000000,0.00000000,0.0000000 {E-lon(deg),Dxy(km),Dz(km)}
Center radii    : (undefined)                                                  
Output units    : KM-S                                                         
Output type     : GEOMETRIC cartesian states
Output format   : 3 (position, velocity, LT, range, range-rate)
Reference frame : ICRF/J2000.0                                                 
Coordinate systm: Ecliptic and Mean Equinox of Reference Epoch                 
*******************************************************************************
            JDTDB,            Calendar Date (TDB),                      X,                      Y,                      Z,                     VX,                     VY,                     VZ,                     LT,                     RG,                     RR,
**************************************************************************************************************************************************************************************************************************************************************************
$$SOE
2458466.500000000, A.D. 2018-Dec-14 00:00:00.0000,  2.550997368403612E+09,  1.524876428299668E+09, -2.731253647051156E+07,  4.877902735400589E+00,  3.464285014495067E+00, -1.604784031944007E+00,  9.913972533800787E+03,  2.972134194452626E+09,  5.978853295526724E+00,
2458467.500000000, A.D. 2018-Dec-15 00:00:00.0000,  2.550612001556063E+09,  1.525355743772294E+09, -2.741761238118351E+07, -7.822921683734052E+00,  7.496938931728160E+00,  7.521015554368315E+00,  9.913692954251441E+03,  2.972050378612321E+09, -2.935329570960834E+00,
2458468.500000000, A.D. 2018-Dec-16 00:00:00.0000,  2.550438067486336E+09,  1.525807011833894E+09, -2.739375396733660E+07, -6.170245768600685E+00,  4.922238428850146E+00, -8.352708540055906E+00,  9.913966990379698E+03,  2.972132532576792E+09, -2.690873187840949E+00,
2458469.500000000, A.D. 2018-Dec-17 00:00:00.0000,  2.550031615866244E+09,  1.526318237703776E+09, -2.730182612977570E+07,  4.271310621159168E+00,  4.373545423643487E+00,  3.987760884090615E+00,  9.913676422985332E+03,  2.972045422663420E+09,  5.874246060049767E+00,
2458470.500000000, A.D. 2018-Dec-18 00:00:00.0000,  2.549727791119875E+09,  1.526776255126588E+09, -2.743080547890234E+07, -1.151166605444092E+01,  7.691950880682818E+00,  3.189958719400929E+00,  9.913595612456906E+03,  2.972021196276471E+09, -5.953938033874057E+00,
2458471.500000000, A.D. 2018-Dec-19 00:00:00.0000,  2.549517425192716E+09,  1.527246093599078E+09, -2.732891510893881E+07, -5.882036081668942E-01,  3.745507850900524E+00, -8.069021037372361E+00,  9.913795730777152E+03,  2.972081190239589E+09,  1.494304560311944E+00,
2458472.500000000, A.D. 2018-Dec-20 00:00:00.0000,  2.549077791313879E+09,  1.527752930907129E+09, -2.731845798159403E+07,  4.155747457329273E-01,  5.760231882658870E+00,  7.937903853647127E+00,  9.913406445184852E+03,  2.971964485355009E+09,  3.244551626052106E+00,
2458473.500000000, A.D. 2018-Dec-21 00:00:00.0000,  2.548854418707461E+09,  1.528197711246594E+09, -2.741525033079576E+07, -1.188905479882628E+01,  6.983874806814509E+00, -2.453044135120835E+00,  9.913533152075652E+03,  2.972002471125247E+09, -6.582591277722917E+00,
2458474.500000000, A.D. 2018-Dec-22 00:00:00.0000,  2.548567435737127E+09,  1.528689263736510E+09, -2.727543337324077E+07,  3.750824466441361E+00,  3.313514809699600E+00, -4.384572776964757E+00,  9.913551166107110E+03,  2.972007871596017E+09,  4.961007967279917E+00,
2458475.500000000, A.D. 2018-Dec-23 00:00:00.0000,  2.548150052022075E+09,  1.529179390867234E+09, -2.734835939768648E+07, -5.083303192525554E+00,  7.047478125684263E+00,  8.614182216431674E+00,  9.913200672186031E+03,  2.971902796161902E+09, -8.115153501590834E-01,
2458476.500000000, A.D. 2018-Dec-24 00:00:00.0000,  2.547972406965453E+09,  1.529624440302651E+09, -2.737028450340956E+07, -8.784250399571418E+00,  5.663522281916167E+00, -7.056871679015721E+00,  9.913457257670607E+03,  2.971979718555010E+09, -4.551113476098423E+00,
2458477.500000000, A.D. 2018-Dec-25 00:00:00.0000,  2.547600425425769E+09,  1.530131716293699E+09, -2.724853692626077E+07,  5.033147604579188E+00,  3.804269793442549E+00,  1.148819474768224E+00,  9.913260860162203E+03,  2.971920840063221E+09,  6.262676631947367E+00,
2458478.500000000, A.D. 2018-Dec-26 00:00:00.0000,  2.547251177451949E+09,  1.530599735697628E+09, -2.737201186193311E+07, -9.950284058445172E+00,  7.701700706821295E+00,  5.739004411118627E+00,  9.913069973868678E+03,  2.971863613792087E+09, -4.614861782600374E+00,
2458479.500000000, A.D. 2018-Dec-27 00:00:00.0000,  2.547065295428531E+09,  1.531058415894218E+09, -2.730742317616779E+07, -3.487523645975902E+00,  4.281616501727640E+00, -8.685899962043420E+00,  9.913324671960234E+03,  2.971939970359002E+09, -7.033641129931857E-01,
2458480.500000000, A.D. 2018-Dec-28 00:00:00.0000,  2.546635380967584E+09,  1.531568779515007E+09, -2.725210543729937E+07,  2.738134331933692E+00,  5.008404619341952E+00,  6.218973138254702E+00,  9.912971217402292E+03,  2.971834007348285E+09,  4.870482594331349E+00,
2458481.500000000, A.D. 2018-Dec-29 00:00:00.0000,  2.546371725429412E+09,  1.532018407696158E+09, -2.737229659906673E+07, -1.216451210847543E+01,  7.448542456899400E+00,  4.965424290466918E-01,  9.912994362188658E+03,  2.971840945980680E+09, -6.587720337223751E+00,
2458482.500000000, A.D. 2018-Dec-30 00:00:00.0000,  2.546126899022640E+09,  1.532498332410535E+09, -2.724566001826328E+07,  1.778528720176858E+00,  3.417553439653429E+00, -6.652876479220531E+00,  9.913116167423874E+03,  2.971877462271543E+09,  3.347048086367852E+00,
2458483.500000000, A.D. 2018-Dec-31 00:00:00.0000,  2.545690176825178E+09,  1.532997788426035E+09, -2.727736873172361E+07, -2.169032023440168E+00,  6.422709090623313E+00,  8.724687950459744E+00,  9.912728425982148E+03,  2.971761220311660E+09,  1.375052867005239E+00,
2458484.500000000, A.D. 2019-Jan-01 00:00:00.0000,  2.545493868208647E+09,  1.533440310546992E+09, -2.734186399424005E+07, -1.079273931835994E+01,  6.388492933128776E+00, -4.938575498122169E+00,  9.912931051240572E+03,  2.971821965835935E+09, -5.902590905786719E+00,
2458485.500000000, A.D. 2019-Jan-02 00:00:00.0000,  2.545163812759358E+09,  1.533940150450218E+09, -2.720365310431111E+07,  4.805271671676010E+00,  3.431830324114108E+00, -1.817474426441988E+00,  9.912844321840717E+03,  2.971795965015972E+09,  5.903456375628823E+00,
2458486.500000000, A.D. 2019-Jan-03 00:00:00.0000,  2.544773959136504E+09,  1.534419211018404E+09, -2.730671624971974E+07, -7.654964959098486E+00,  7.460719498862518E+00,  7.633702375189501E+00,  9.912558780564705E+03,  2.971710361894975E+09, -2.773061469685506E+00,
2458487.500000000, A.D. 2019-Jan-04 00:00:00.0000,  2.544598529815024E+09,  1.534868832928250E+09, -2.728616665612698E+07, -6.395211403878864E+00,  4.961192837205813E+00, -8.290130307945898E+00,  9.912831576293253E+03,  2.971792143996968E+09, -2.837432428119825E+00,
2458488.500000000, A.D. 2019-Jan-05 00:00:00.0000,  2.544192482563560E+09,  1.535378859944531E+09, -2.719165698320842E+07,  4.337916434774520E+00,  4.314172734531573E+00,  3.791228215861252E+00,  9.912547860721108E+03,  2.971707088208222E+09,  5.908151005382718E+00,
2458489.500000000, A.D. 2019-Jan-06 00:00:00.0000,  2.543883519042923E+09,  1.535836456580535E+09, -2.732072632979345E+07, -1.144782900326304E+01,  7.690609201215440E+00,  3.393426929068812E+00,  9.912458278416645E+03,  2.971680232108974E+09, -5.856328768516405E+00,
2458490.500000000, A.D. 2019-Jan-07 00:00:00.0000,  2.543673611427443E+09,  1.536304371978035E+09, -2.722120973509574E+07, -8.121587098707455E-01,  3.764189922290176E+00, -8.146099750654786E+00,  9.912662655233220E+03,  2.971741502737174E+09,  1.325425324574345E+00,
2458491.500000000, A.D. 2019-Jan-08 00:00:00.0000,  2.543232440601964E+09,  1.536810530560356E+09, -2.720737803905869E+07,  5.854108943439873E-01,  5.693305065046085E+00,  7.839879288208723E+00,  9.912275702178187E+03,  2.971625497129674E+09,  3.373596237258467E+00,
2458492.500000000, A.D. 2019-Jan-09 00:00:00.0000,  2.543004636634642E+09,  1.537254440040622E+09, -2.730635492465138E+07, -1.196456263884141E+01,  7.012549096863455E+00, -2.244340299289008E+00,  9.912394314162641E+03,  2.971661056108043E+09, -6.590449216166249E+00,
2458493.500000000, A.D. 2019-Jan-10 00:00:00.0000,  2.542719073417037E+09,  1.537744142484963E+09, -2.716699511583650E+07,  3.611228226196860E+00,  3.298931920882187E+00, -4.569852896282639E+00,  9.912420101675669E+03,  2.971668787009958E+09,  4.838830411106378E+00,
2458494.500000000, A.D. 2019-Jan-11 00:00:00.0000,  2.542298023077975E+09,  1.538233951954824E+09, -2.723714310790098E+07, -4.891241606387276E+00,  6.996095635195383E+00,  8.656866207540505E+00,  9.912066183563265E+03,  2.971562685029110E+09, -6.424735182312522E-01,
